THOR 5                  
1 32487U 08006A   08261.39670333 -.00000008  00000-0  10000-3 0  1286
2 32487   0.0145 187.7038 0002212 337.5897 333.4690  1.00272895  2193
KIZUNA (WINDS)          
1 32500U 08007A   08263.15635898 -.00000260  00000-0  10000-3 0   690
2 32500   0.0353 276.3001 0003440 236.1462  45.2544  1.00270641  2149
DIRECTV 11              
1 32729U 08013A   08262.39249832 -.00000126  00000-0  00000+0 0  1499
2 32729   0.0302 332.8488 0000187 299.9363 126.9783  1.00271783  1953
ICO G1                  
1 32763U 08016A   08262.42702297 -.00000175  00000-0  10000-3 0   839
2 32763   5.8177 327.7503 0003257 201.1915 249.6578  1.00271563  1618
VINASAT-1               
1 32767U 08018A   08263.17263358 -.00000330  00000-0  10000-3 0   741
2 32767   0.0374 298.2933 0002586 251.1017   3.1297  1.00268799  1639
STAR ONE C2             
1 32768U 08018B   08264.11864322 -.00000270  00000-0  00000+0 0   686
2 32768   0.0320 163.9101 0002086  43.3877 124.8272  1.00271569  1673
TIANLIAN I (CTDRS-1)    
1 32779U 08019A   08263.00183802 -.00000108  00000-0  10000-3 0  1375
2 32779   0.1603 279.9844 0004539 303.1140 212.8404  1.00273646  1490
AMOS 3                  
1 32794U 08022A   08261.31566598 -.00000033  00000-0  00000+0 0   837
2 32794   0.0320 193.6747 0001836  38.9394 233.6547  1.00272348  1450
GALAXY 18 (G-18)        
1 32951U 08024A   08262.58255689  .00000025  00000-0  00000+0 0   751
2 32951   0.0097 225.0204 0002906 319.2884 260.2800  1.00270399  1230
CHINASAT 9              
1 33051U 08028A   08263.63188624 -.00000250  00000-0  10000-3 0   888
2 33051   0.0141 191.2071 0002798   6.5606 120.8285  1.00270346  1055
SKYNET 5C               
1 33055U 08030A   08262.20458508 -.00000138  00000-0  10000-3 0   490
2 33055   0.6421 221.3274 0002965 319.1037 232.9258  1.00273557  1044
TURKSAT 3A              
1 33056U 08030B   08261.76036345  .00000147  00000-0  10000-3 0   648
2 33056   0.0118 150.9678 0003448 355.3476 166.4982  1.00275151  1084
COSMOS 2440             
1 33108U 08033A   08263.57395403 -.00000139  00000-0  10000-3 0   870
2 33108   2.1142 284.8206 0002051  67.9163 292.6801  1.00264050   845
PROTOSTAR 1             
1 33153U 08034A   08262.58397765 -.00000294  00000-0  00000+0 0   815
2 33153   0.0332 296.2742 0001547 235.9346 134.2476  1.00270129   768
BADR-6                  
1 33154U 08034B   08264.01134537  .00000141  00000-0  10000-3 0   491
2 33154   0.0550 322.7908 0002600 240.7117 185.8789  1.00273743   800
ECHOSTAR 11             
1 33207U 08035A   08263.47353970 -.00000059  00000-0  00000+0 0   588
2 33207   0.0181  11.4473 0001295 152.8388 254.9619  1.00269627   682
SUPERBIRD 7             
1 33274U 08038A   08262.25657009 -.00000308  00000-0  10000-3 0   447
2 33274   0.0747 332.7830 0004357 187.8681  64.9838  1.00269827   398
AMC-21                  
1 33275U 08038B   08263.50395084  .00000035  00000-0  10000-3 0   489
2 33275   0.0089 352.8163 0000693 254.6972 162.2349  1.00498394   500
INMARSAT 4-F3           
1 33278U 08039A   08263.57759745 -.00000165  00000-0  00000+0 0   398
2 33278   3.0719 329.1612 0002113 207.0565  26.9972  0.99455510   363
